{
    "links": {
        "self": "http://www.neowsapp.com/rest/v1/neo/3384401?api_key=iIulBulltgU6a56xZRHN4H3l9WmuAYTsLGpBGhQ2"
    },
    "id": "3384401",
    "neo_reference_id": "3384401",
    "name": "(2007 RP17)",
    "designation": "2007 RP17",
    "nasa_jpl_url": "http://ssd.jpl.nasa.gov/sbdb.cgi?sstr=3384401",
    "absolute_magnitude_h": 24.2,
    "estimated_diameter": {
        "kilometers": {
            "estimated_diameter_min": 0.0384197891,
            "estimated_diameter_max": 0.0859092601
        },
        "meters": {
            "estimated_diameter_min": 38.4197891064,
            "estimated_diameter_max": 85.9092601232
        },
        "miles": {
            "estimated_diameter_min": 0.0238729428,
            "estimated_diameter_max": 0.0533815229
        },
        "feet": {
            "estimated_diameter_min": 126.0491808919,
            "estimated_diameter_max": 281.8545369825
        }
    },
    "is_potentially_hazardous_asteroid": false,
    "close_approach_data": [
        {
            "close_approach_date": "2007-09-01",
            "close_approach_date_full": "2007-Sep-01 09:17",
            "epoch_date_close_approach": 1188638220000,
            "relative_velocity": {
                "kilometers_per_second": "7.4506524084",
                "kilometers_per_hour": "26822.3486702301",
                "miles_per_hour": "16666.3643723438"
            },
            "miss_distance": {
                "astronomical": "0.0984744839",
                "lunar": "38.3065742371",
                "kilometers": "14731573.040789293",
                "miles": "9153775.0213585234"
            },
            "orbiting_body": "Earth"
        }
    ],
    "orbital_data": {
        "orbit_id": "8",
        "orbit_determination_date": "2017-04-06 09:06:02",
        "first_observation_date": "2007-09-13",
        "last_observation_date": "2007-10-02",
        "data_arc_in_days": 19,
        "observations_used": 19,
        "orbit_uncertainty": "8",
        "minimum_orbit_intersection": ".0705969",
        "jupiter_tisserand_invariant": "3.590",
        "epoch_osculation": "2454358.5",
        "eccentricity": ".4866943723529905",
        "semi_major_axis": "2.09441394250684",
        "inclination": "4.249448861298661",
        "ascending_node_longitude": "349.4848743136126",
        "orbital_period": "1107.113655015575",
        "perihelion_distance": "1.075074463311121",
        "perihelion_argument": "332.8228000444458",
        "aphelion_distance": "3.113753421702559",
        "perihelion_time": "2454332.987879215168",
        "mean_anomaly": "8.295772923521852",
        "mean_motion": ".3251698670403767",
        "equinox": "J2000",
        "orbit_class": {
            "orbit_class_type": "AMO",
            "orbit_class_description": "Near-Earth asteroid orbits similar to that of 1221 Amor",
            "orbit_class_range": "1.017 AU < q (perihelion) < 1.3 AU"
        }
    },
    "is_sentry_object": false
}